{
  "type": "FeatureCollection",
  "features": [
    {
      "type": "Feature",
      "properties": {
        "norad_id": 46805,
        "name": "COSMOS 2547 (705K)",
        "group": "glo-ops",
        "lat": -30.854441539819014,
        "lon": -177.85154299658532,
        "alt_km": 19136.04969287455,
        "timestamp": "2025-12-14T11:29:50.321519+00:00",
        "meta_object_name": "COSMOS 2547 (705K)",
        "meta_object_id": "2020-075A",
        "meta_epoch": "2025-12-13T02:47:35.788416",
        "meta_mean_motion": 2.13100044,
        "meta_eccentricity": 0.00062786,
        "meta_inclination": 64.5959,
        "meta_ra_of_asc_node": 198.6839,
        "meta_arg_of_pericenter": 228.7725,
        "meta_mean_anomaly": 131.2461,
        "meta_ephemeris_type": 0,
        "meta_classification_type": "U",
        "meta_norad_cat_id": 46805,
        "meta_element_set_no": 999,
        "meta_rev_at_epoch": 3994,
        "meta_bstar": 0,
        "meta_mean_motion_dot": 7.7e-07,
        "meta_mean_motion_ddot": 0,
        "tle_line1": "1 46805U 20075A   25347.11638644  .00000077  00000+0  00000+0 0  9993",
        "tle_line2": "2 46805  64.5959 198.6839 0006278 228.7725 131.2461  2.13100044 39941"
      },
      "geometry": {
        "type": "Point",
        "coordinates": [
          -177.85154299658532,
          -30.854441539819014
        ]
      }
    },
    {
      "type": "Feature",
      "properties": {
        "norad_id": 52984,
        "name": "COSMOS 2557 (706K)",
        "group": "glo-ops",
        "lat": -16.49370911892618,
        "lon": 149.13618846453272,
        "alt_km": 19125.52752324833,
        "timestamp": "2025-12-14T11:29:50.321531+00:00",
        "meta_object_name": "COSMOS 2557 (706K)",
        "meta_object_id": "2022-075A",
        "meta_epoch": "2025-12-07T04:21:00.419904",
        "meta_mean_motion": 2.13101754,
        "meta_eccentricity": 0.00137049,
        "meta_inclination": 64.4129,
        "meta_ra_of_asc_node": 321.247,
        "meta_arg_of_pericenter": 276.9,
        "meta_mean_anomaly": 82.939,
        "meta_ephemeris_type": 0,
        "meta_classification_type": "U",
        "meta_norad_cat_id": 52984,
        "meta_element_set_no": 999,
        "meta_rev_at_epoch": 2662,
        "meta_bstar": 0,
        "meta_mean_motion_dot": -5.2e-07,
        "meta_mean_motion_ddot": 0,
        "tle_line1": "1 52984U 22075A   25341.18125486 -.00000052  00000+0  00000+0 0  9990",
        "tle_line2": "2 52984  64.4129 321.2470 0013704 276.9000  82.9390  2.13101754 26625"
      },
      "geometry": {
        "type": "Point",
        "coordinates": [
          149.13618846453272,
          -16.49370911892618
        ]
      }
    },
    {
      "type": "Feature",
      "properties": {
        "norad_id": 54031,
        "name": "COSMOS 2559 (707K)",
        "group": "glo-ops",
        "lat": -20.298002934292672,
        "lon": -49.15175597793806,
        "alt_km": 19157.56595378413,
        "timestamp": "2025-12-14T11:29:50.321542+00:00",
        "meta_object_name": "COSMOS 2559 (707K)",
        "meta_object_id": "2022-130A",
        "meta_epoch": "2025-12-13T02:25:11.978976",
        "meta_mean_motion": 2.13101368,
        "meta_eccentricity": 0.00117843,
        "meta_inclination": 64.3821,
        "meta_ra_of_asc_node": 321.1284,
        "meta_arg_of_pericenter": 192.3718,
        "meta_mean_anomaly": 167.5993,
        "meta_ephemeris_type": 0,
        "meta_classification_type": "U",
        "meta_norad_cat_id": 54031,
        "meta_element_set_no": 999,
        "meta_rev_at_epoch": 2472,
        "meta_bstar": 0,
        "meta_mean_motion_dot": -6.2e-07,
        "meta_mean_motion_ddot": 0,
        "tle_line1": "1 54031U 22130A   25347.10083309 -.00000062  00000+0  00000+0 0  9993",
        "tle_line2": "2 54031  64.3821 321.1284 0011784 192.3718 167.5993  2.13101368 24722"
      },
      "geometry": {
        "type": "Point",
        "coordinates": [
          -49.15175597793806,
          -20.298002934292672
        ]
      }
    },
    {
      "type": "Feature",
      "properties": {
        "norad_id": 54377,
        "name": "COSMOS 2564 (761)",
        "group": "glo-ops",
        "lat": 63.89892496324567,
        "lon": -55.68290511967968,
        "alt_km": 19129.79636838974,
        "timestamp": "2025-12-14T11:29:50.321553+00:00",
        "meta_object_name": "COSMOS 2564 (761)",
        "meta_object_id": "2022-161A",
        "meta_epoch": "2025-12-13T09:56:35.350656",
        "meta_mean_motion": 2.13102091,
        "meta_eccentricity": 0.00086002,
        "meta_inclination": 64.7383,
        "meta_ra_of_asc_node": 198.8765,
        "meta_arg_of_pericenter": 204.6894,
        "meta_mean_anomaly": 155.3431,
        "meta_ephemeris_type": 0,
        "meta_classification_type": "U",
        "meta_norad_cat_id": 54377,
        "meta_element_set_no": 999,
        "meta_rev_at_epoch": 2367,
        "meta_bstar": 0,
        "meta_mean_motion_dot": 8.1e-07,
        "meta_mean_motion_ddot": 0,
        "tle_line1": "1 54377U 22161A   25347.41429804  .00000081  00000+0  00000+0 0  9998",
        "tle_line2": "2 54377  64.7383 198.8765 0008600 204.6894 155.3431  2.13102091 23679"
      },
      "geometry": {
        "type": "Point",
        "coordinates": [
          -55.68290511967968,
          63.89892496324567
        ]
      }
    },
    {
      "type": "Feature",
      "properties": {
        "norad_id": 57517,
        "name": "COSMOS 2569 (703K)",
        "group": "glo-ops",
        "lat": 64.99087944075573,
        "lon": 160.68477962061436,
        "alt_km": 19147.970030793913,
        "timestamp": "2025-12-14T11:29:50.321564+00:00",
        "meta_object_name": "COSMOS 2569 (703K)",
        "meta_object_id": "2023-114A",
        "meta_epoch": "2025-12-12T23:00:06.356160",
        "meta_mean_motion": 2.13103989,
        "meta_eccentricity": 0.00105383,
        "meta_inclination": 65.1943,
        "meta_ra_of_asc_node": 78.9061,
        "meta_arg_of_pericenter": 287.004,
        "meta_mean_anomaly": 72.8956,
        "meta_ephemeris_type": 0,
        "meta_classification_type": "U",
        "meta_norad_cat_id": 57517,
        "meta_element_set_no": 999,
        "meta_rev_at_epoch": 1829,
        "meta_bstar": 0,
        "meta_mean_motion_dot": -4.5e-07,
        "meta_mean_motion_ddot": 0,
        "tle_line1": "1 57517U 23114A   25346.95840690 -.00000045  00000+0  00000+0 0  9995",
        "tle_line2": "2 57517  65.1943  78.9061 0010538 287.0040  72.8956  2.13103989 18297"
      },
      "geometry": {
        "type": "Point",
        "coordinates": [
          160.68477962061436,
          64.99087944075573
        ]
      }
    },
    {
      "type": "Feature",
      "properties": {
        "norad_id": 63130,
        "name": "COSMOS 2584 (704K)",
        "group": "glo-ops",
        "lat": 5.851571887553564,
        "lon": -103.64857053076597,
        "alt_km": 19115.482895544592,
        "timestamp": "2025-12-14T11:29:50.321576+00:00",
        "meta_object_name": "COSMOS 2584 (704K)",
        "meta_object_id": "2025-042A",
        "meta_epoch": "2025-12-12T20:16:48.196992",
        "meta_mean_motion": 2.13103011,
        "meta_eccentricity": 0.00076618,
        "meta_inclination": 64.9761,
        "meta_ra_of_asc_node": 79.1423,
        "meta_arg_of_pericenter": 217.4089,
        "meta_mean_anomaly": 142.5525,
        "meta_ephemeris_type": 0,
        "meta_classification_type": "U",
        "meta_norad_cat_id": 63130,
        "meta_element_set_no": 999,
        "meta_rev_at_epoch": 607,
        "meta_bstar": 0,
        "meta_mean_motion_dot": -4.4e-07,
        "meta_mean_motion_ddot": 0,
        "tle_line1": "1 63130U 25042A   25346.84500228 -.00000044  00000+0  00000+0 0  9992",
        "tle_line2": "2 63130  64.9761  79.1423 0007661 217.4089 142.5525  2.13103011  6074"
      },
      "geometry": {
        "type": "Point",
        "coordinates": [
          -103.64857053076597,
          5.851571887553564
        ]
      }
    },
    {
      "type": "Feature",
      "properties": {
        "norad_id": 65590,
        "name": "COSMOS 2596 (708K)",
        "group": "glo-ops",
        "lat": -56.97601544764206,
        "lon": -85.16255926027941,
        "alt_km": 19101.506789170937,
        "timestamp": "2025-12-14T11:29:50.321587+00:00",
        "meta_object_name": "COSMOS 2596 (708K)",
        "meta_object_id": "2025-206B",
        "meta_epoch": "2025-12-13T03:40:38.538048",
        "meta_mean_motion": 2.13100493,
        "meta_eccentricity": 0.00140265,
        "meta_inclination": 64.7439,
        "meta_ra_of_asc_node": 321.4594,
        "meta_arg_of_pericenter": 306.3445,
        "meta_mean_anomaly": 48.5588,
        "meta_ephemeris_type": 0,
        "meta_classification_type": "U",
        "meta_norad_cat_id": 65590,
        "meta_element_set_no": 999,
        "meta_rev_at_epoch": 194,
        "meta_bstar": 0,
        "meta_mean_motion_dot": -6.1e-07,
        "meta_mean_motion_ddot": 0,
        "tle_line1": "1 65590U 25206B   25347.15322382 -.00000061  00000+0  00000+0 0  9993",
        "tle_line2": "2 65590  64.7439 321.4594 0014026 306.3445  48.5588  2.13100493  1941"
      },
      "geometry": {
        "type": "Point",
        "coordinates": [
          -85.16255926027941,
          -56.97601544764206
        ]
      }
    }
  ]
}